SystemID,StreetName,HouseNumber,UnitNumber,ServiceType,RFID,ContainerSize,ContainerType,TicketStatus,DateTime,UserName,Latitude,Longitude,BrokenComponent,Comments
579387,WINTERBERRY,4212,,DEL,888888888881,96,Recycle,COMPLETED,08/03/2014 08:24:46,100PERCENT,,,,
579386,WINTERBERRY,4208,,DEL,888888888882,96,Recycle,COMPLETED,08/03/2014 08:24:47,100PERCENT,,,,
579385,WINTERBERRY,4207,,DEL,888888888883,96,Recycle,COMPLETED,08/03/2014 08:24:48,100PERCENT,,,,
579384,WINTERBERRY,4203,,DEL,888888888884,96,Recycle,COMPLETED,08/03/2014 08:24:49,100PERCENT,,,,
578095,WHITE ASH,4412,,DEL,888888888885,96,Recycle,COMPLETED,08/03/2014 08:24:50,100PERCENT,,,,
578094,WHITE ASH,4444,,DEL,888888888886,96,Recycle,COMPLETED,08/03/2014 08:24:51,100PERCENT,,,,
578093,WHITE ASH,4440,,DEL,888888888887,96,Recycle,COMPLETED,08/03/2014 08:24:52,100PERCENT,,,,
578092,WHITE ASH,4436,,DEL,888888888888,96,Recycle,COMPLETED,08/03/2014 08:24:53,100PERCENT,,,,
578091,WHITE ASH,4431,,DEL,888888888889,96,Recycle,COMPLETED,08/03/2014 08:24:53,100PERCENT,,,,
578090,WHITE ASH,4428,,DEL,888888888890,96,Recycle,COMPLETED,08/03/2014 08:24:53,100PERCENT,,,,
578089,WHITE ASH,4427,,DEL,888888888891,96,Recycle,COMPLETED,08/03/2014 08:24:53,100PERCENT,,,,
578088,WHITE ASH,4424,,DEL,888888888892,96,Recycle,COMPLETED,08/03/2014 08:24:53,100PERCENT,,,,
578087,WHITE ASH,4423,,DEL,888888888893,96,Recycle,COMPLETED,08/03/2014 08:24:53,100PERCENT,,,,
578086,WHITE ASH,4420,,DEL,888888888894,96,Recycle,COMPLETED,08/03/2014 08:24:53,100PERCENT,,,,
578085,WHITE ASH,4416,,DEL,888888888895,96,Recycle,COMPLETED,08/03/2014 08:24:53,100PERCENT,,,,
576509,WALTON HEATH,4512,,DEL,888888888896,96,Recycle,COMPLETED,08/03/2014 08:24:53,100PERCENT,,,,
575160,TORPHIN HILL,4719,,DEL,888888888897,96,Recycle,COMPLETED,08/03/2014 08:24:53,100PERCENT,,,,
575159,TORPHIN HILL,4716,,DEL,888888888898,96,Recycle,COMPLETED,08/03/2014 08:24:53,100PERCENT,,,,
575158,TORPHIN HILL,4715,,DEL,888888888899,96,Recycle,COMPLETED,08/03/2014 08:24:53,100PERCENT,,,,
575157,TORPHIN HILL,4712,,DEL,888888888900,96,Recycle,COMPLETED,08/03/2014 08:24:53,100PERCENT,,,,
575156,TORPHIN HILL,4711,,DEL,888888888901,96,Recycle,COMPLETED,08/03/2014 08:24:53,100PERCENT,,,,
575155,TORPHIN HILL,4708,,DEL,888888888902,96,Recycle,COMPLETED,08/03/2014 08:24:53,100PERCENT,,,,
575154,TORPHIN HILL,4704,,DEL,888888888903,96,Recycle,COMPLETED,08/03/2014 08:24:53,100PERCENT,,,,
574400,TEAK,4075,,DEL,888888888904,96,Recycle,COMPLETED,08/03/2014 08:24:53,100PERCENT,,,,
574399,TEAK,4164,,DEL,888888888905,96,Recycle,COMPLETED,08/03/2014 08:24:53,100PERCENT,,,,
574398,TEAK,4163,,DEL,888888888906,96,Recycle,COMPLETED,08/03/2014 08:24:53,100PERCENT,,,,
574397,TEAK,4159,,DEL,888888888907,96,Recycle,COMPLETED,08/03/2014 08:24:53,100PERCENT,,,,
574396,TEAK,4156,,DEL,888888888908,96,Recycle,COMPLETED,08/03/2014 08:24:53,100PERCENT,,,,
574395,TEAK,4155,,DEL,888888888909,96,Recycle,COMPLETED,08/03/2014 08:24:53,100PERCENT,,,,
574394,TEAK,4152,,DEL,888888888910,96,Recycle,COMPLETED,08/03/2014 08:24:53,100PERCENT,,,,
574393,TEAK,4148,,DEL,888888888911,96,Recycle,COMPLETED,08/03/2014 08:24:53,100PERCENT,,,,
574392,TEAK,4147,,DEL,888888888912,96,Recycle,COMPLETED,08/03/2014 08:24:53,100PERCENT,,,,
574391,TEAK,4144,,DEL,888888888913,96,Recycle,COMPLETED,08/03/2014 08:24:53,100PERCENT,,,,
574390,TEAK,4136,,DEL,888888888914,96,Recycle,COMPLETED,08/03/2014 08:24:53,100PERCENT,,,,
574389,TEAK,4135,,DEL,888888888915,96,Recycle,COMPLETED,08/03/2014 08:24:53,100PERCENT,,,,
574388,TEAK,4132,,DEL,888888888916,96,Recycle,COMPLETED,08/03/2014 08:24:53,100PERCENT,,,,
574387,TEAK,4131,,DEL,888888888917,96,Recycle,COMPLETED,08/03/2014 08:24:53,100PERCENT,,,,
574386,TEAK,4128,,DEL,888888888918,96,Recycle,COMPLETED,08/03/2014 08:24:53,100PERCENT,,,,
574385,TEAK,4120,,DEL,888888888919,96,Recycle,COMPLETED,08/03/2014 08:24:53,100PERCENT,,,,
574384,TEAK,4119,,DEL,888888888920,96,Recycle,COMPLETED,08/03/2014 08:24:53,100PERCENT,,,,
574383,TEAK,4115,,DEL,888888888921,96,Recycle,COMPLETED,08/03/2014 08:24:53,100PERCENT,,,,
574382,TEAK,4111,,DEL,888888888922,96,Recycle,COMPLETED,08/03/2014 08:24:53,100PERCENT,,,,
574381,TEAK,4103,,DEL,888888888923,96,Recycle,COMPLETED,08/03/2014 08:24:53,100PERCENT,,,,
574380,TEAK,4083,,DEL,888888888924,96,Recycle,COMPLETED,08/03/2014 08:24:53,100PERCENT,,,,
574379,TEAK,4079,,DEL,888888888925,96,Recycle,COMPLETED,08/03/2014 08:24:53,100PERCENT,,,,
574378,TEAK,4072,,DEL,888888888926,96,Recycle,COMPLETED,08/03/2014 08:24:53,100PERCENT,,,,
574377,TEAK,4071,,DEL,888888888927,96,Recycle,COMPLETED,08/03/2014 08:24:53,100PERCENT,,,,
574376,TEAK,4059,,DEL,888888888928,96,Recycle,COMPLETED,08/03/2014 08:24:53,100PERCENT,,,,
574375,TEAK,4056,,DEL,888888888929,96,Recycle,COMPLETED,08/03/2014 08:24:53,100PERCENT,,,,
574374,TEAK,4055,,DEL,888888888930,96,Recycle,COMPLETED,08/03/2014 08:24:53,100PERCENT,,,,
574373,TEAK,4052,,DEL,888888888931,96,Recycle,COMPLETED,08/03/2014 08:24:53,100PERCENT,,,,
574372,TEAK,4047,,DEL,888888888932,96,Recycle,COMPLETED,08/03/2014 08:24:53,100PERCENT,,,,
574371,TEAK,4044,,DEL,888888888933,96,Recycle,COMPLETED,08/03/2014 08:24:53,100PERCENT,,,,
574370,TEAK,4040,,DEL,888888888934,96,Recycle,COMPLETED,08/03/2014 08:24:53,100PERCENT,,,,
574369,TEAK,4036,,DEL,888888888935,96,Recycle,COMPLETED,08/03/2014 08:24:53,100PERCENT,,,,
574368,TEAK,4035,,DEL,888888888936,96,Recycle,COMPLETED,08/03/2014 08:24:53,100PERCENT,,,,
574367,TEAK,4032,,DEL,888888888937,96,Recycle,COMPLETED,08/03/2014 08:24:53,100PERCENT,,,,
574366,TEAK,4028,,DEL,888888888938,96,Recycle,COMPLETED,08/03/2014 08:24:53,100PERCENT,,,,
574365,TEAK,4024,,DEL,888888888939,96,Recycle,COMPLETED,08/03/2014 08:24:53,100PERCENT,,,,
574364,TEAK,4023,,DEL,888888888940,96,Recycle,COMPLETED,08/03/2014 08:24:53,100PERCENT,,,,
574363,TEAK,4019,,DEL,888888888941,96,Recycle,COMPLETED,08/03/2014 08:24:53,100PERCENT,,,,
574362,TEAK,4016,,DEL,888888888942,96,Recycle,COMPLETED,08/03/2014 08:24:53,100PERCENT,,,,
574361,TEAK,4015,,DEL,888888888943,96,Recycle,COMPLETED,08/03/2014 08:24:53,100PERCENT,,,,
574360,TEAK,4012,,DEL,888888888944,96,Recycle,COMPLETED,08/03/2014 08:24:53,100PERCENT,,,,
573537,SUNNINGDALE,4616,,DEL,888888888945,96,Recycle,COMPLETED,08/03/2014 08:24:53,100PERCENT,,,,
573536,SUNNINGDALE,4612,,DEL,888888888946,96,Recycle,COMPLETED,08/03/2014 08:24:53,100PERCENT,,,,
573535,SUNNINGDALE,4608,,DEL,888888888947,96,Recycle,COMPLETED,08/03/2014 08:24:53,100PERCENT,,,,
573534,SUNNINGDALE,4607,,DEL,888888888948,96,Recycle,COMPLETED,08/03/2014 08:24:53,100PERCENT,,,,
573533,SUNNINGDALE,4604,,DEL,888888888949,96,Recycle,COMPLETED,08/03/2014 08:24:53,100PERCENT,,,,
573532,SUNNINGDALE,4603,,DEL,888888888950,96,Recycle,COMPLETED,08/03/2014 08:24:53,100PERCENT,,,,
573531,SUNNINGDALE,4520,,DEL,888888888951,96,Recycle,COMPLETED,08/03/2014 08:24:53,100PERCENT,,,,
573530,SUNNINGDALE,4516,,DEL,888888888952,96,Recycle,COMPLETED,08/03/2014 08:24:53,100PERCENT,,,,
573529,SUNNINGDALE,4515,,DEL,888888888953,96,Recycle,COMPLETED,08/03/2014 08:24:53,100PERCENT,,,,
573528,SUNNINGDALE,4512,,DEL,888888888954,96,Recycle,COMPLETED,08/03/2014 08:24:53,100PERCENT,,,,
573527,SUNNINGDALE,4511,,DEL,888888888955,96,Recycle,COMPLETED,08/03/2014 08:24:53,100PERCENT,,,,
571456,SILK OAK,5432,,DEL,888888888956,96,Recycle,COMPLETED,08/03/2014 08:24:53,100PERCENT,,,,
571455,SILK OAK,5435,,DEL,888888888957,96,Recycle,COMPLETED,08/03/2014 08:24:53,100PERCENT,,,,
571454,SILK OAK,5431,,DEL,888888888958,96,Recycle,COMPLETED,08/03/2014 08:24:53,100PERCENT,,,,
571453,SILK OAK,5428,,DEL,888888888959,96,Recycle,COMPLETED,08/03/2014 08:24:53,100PERCENT,,,,
571452,SILK OAK,5427,,DEL,888888888960,96,Recycle,COMPLETED,08/03/2014 08:24:53,100PERCENT,,,,
571451,SILK OAK,5424,,DEL,888888888961,96,Recycle,COMPLETED,08/03/2014 08:24:53,100PERCENT,,,,
571450,SILK OAK,5420,,DEL,888888888962,96,Recycle,COMPLETED,08/03/2014 08:24:53,100PERCENT,,,,
571449,SILK OAK,5419,,DEL,888888888963,96,Recycle,COMPLETED,08/03/2014 08:24:53,100PERCENT,,,,
571448,SILK OAK,5416,,DEL,888888888964,96,Recycle,COMPLETED,08/03/2014 08:24:53,100PERCENT,,,,
571447,SILK OAK,5415,,DEL,888888888965,96,Recycle,COMPLETED,08/03/2014 08:24:53,100PERCENT,,,,
571446,SILK OAK,5412,,DEL,888888888966,96,Recycle,COMPLETED,08/03/2014 08:24:53,100PERCENT,,,,
571445,SILK OAK,5411,,DEL,888888888967,96,Recycle,COMPLETED,08/03/2014 08:24:53,100PERCENT,,,,
571444,SILK OAK,5408,,DEL,888888888968,96,Recycle,COMPLETED,08/03/2014 08:24:53,100PERCENT,,,,
571443,SILK OAK,5407,,DEL,888888888969,96,Recycle,COMPLETED,08/03/2014 08:24:53,100PERCENT,,,,
570153,SASSASFRAS,4712,,DEL,888888888970,96,Recycle,COMPLETED,08/03/2014 08:24:53,100PERCENT,,,,
570152,SASSAFRAS,4632,,DEL,888888888971,96,Recycle,COMPLETED,08/03/2014 08:24:53,100PERCENT,,,,
570151,SASSAFRAS,4771,,DEL,888888888972,96,Recycle,COMPLETED,08/03/2014 08:24:53,100PERCENT,,,,
570150,SASSAFRAS,4767,,DEL,888888888973,96,Recycle,COMPLETED,08/03/2014 08:24:53,100PERCENT,,,,
570149,SASSAFRAS,4763,,DEL,888888888974,96,Recycle,COMPLETED,08/03/2014 08:24:53,100PERCENT,,,,
570148,SASSAFRAS,4756,,DEL,888888888975,96,Recycle,COMPLETED,08/03/2014 08:24:53,100PERCENT,,,,
570147,SASSAFRAS,4751,,DEL,888888888976,96,Recycle,COMPLETED,08/03/2014 08:24:53,100PERCENT,,,,
570146,SASSAFRAS,4747,,DEL,888888888977,96,Recycle,COMPLETED,08/03/2014 08:24:53,100PERCENT,,,,
570145,SASSAFRAS,4744,,DEL,888888888978,96,Recycle,COMPLETED,08/03/2014 08:24:53,100PERCENT,,,,
570144,SASSAFRAS,4743,,DEL,888888888979,96,Recycle,COMPLETED,08/03/2014 08:24:53,100PERCENT,,,,
570143,SASSAFRAS,4740,,DEL,888888888980,96,Recycle,COMPLETED,08/03/2014 08:24:53,100PERCENT,,,,
570142,SASSAFRAS,4739,,DEL,888888888981,96,Recycle,COMPLETED,08/03/2014 08:24:53,100PERCENT,,,,
570141,SASSAFRAS,4735,,DEL,888888888982,96,Recycle,COMPLETED,08/03/2014 08:24:53,100PERCENT,,,,
570140,SASSAFRAS,4731,,DEL,888888888983,96,Recycle,COMPLETED,08/03/2014 08:24:53,100PERCENT,,,,
570139,SASSAFRAS,4724,,DEL,888888888984,96,Recycle,COMPLETED,08/03/2014 08:24:53,100PERCENT,,,,
570138,SASSAFRAS,4723,,DEL,888888888985,96,Recycle,COMPLETED,08/03/2014 08:24:53,100PERCENT,,,,
570137,SASSAFRAS,4719,,DEL,888888888986,96,Recycle,COMPLETED,08/03/2014 08:24:53,100PERCENT,,,,
570136,SASSAFRAS,4716,,DEL,888888888987,96,Recycle,COMPLETED,08/03/2014 08:24:53,100PERCENT,,,,
570135,SASSAFRAS,4715,,DEL,888888888988,96,Recycle,COMPLETED,08/03/2014 08:24:53,100PERCENT,,,,
570134,SASSAFRAS,4708,,DEL,888888888989,96,Recycle,COMPLETED,08/03/2014 08:24:53,100PERCENT,,,,
570133,SASSAFRAS,4704,,DEL,888888888990,96,Recycle,COMPLETED,08/03/2014 08:24:53,100PERCENT,,,,
570132,SASSAFRAS,4639,,DEL,888888888991,96,Recycle,COMPLETED,08/03/2014 08:24:53,100PERCENT,,,,
570131,SASSAFRAS,4636,,DEL,888888888992,96,Recycle,COMPLETED,08/03/2014 08:24:53,100PERCENT,,,,
570130,SASSAFRAS,4635,,DEL,888888888993,96,Recycle,COMPLETED,08/03/2014 08:24:53,100PERCENT,,,,
570129,SASSAFRAS,4631,,DEL,888888888994,96,Recycle,COMPLETED,08/03/2014 08:24:53,100PERCENT,,,,
570128,SASSAFRAS,4628,,DEL,888888888995,96,Recycle,COMPLETED,08/03/2014 08:24:53,100PERCENT,,,,
570126,SASSAFRAS,4623,,DEL,888888888996,96,Recycle,COMPLETED,08/03/2014 08:24:53,100PERCENT,,,,
570125,SASSAFRAS,4619,,DEL,888888888997,96,Recycle,COMPLETED,08/03/2014 08:24:53,100PERCENT,,,,
570124,SASSAFRAS,4615,,DEL,888888888998,96,Recycle,COMPLETED,08/03/2014 08:24:53,100PERCENT,,,,
570123,SASSAFRAS,4611,,DEL,888888888999,96,Recycle,COMPLETED,08/03/2014 08:24:53,100PERCENT,,,,
570122,SASSAFRAS,4603,,DEL,888888889000,96,Recycle,COMPLETED,08/03/2014 08:24:53,100PERCENT,,,,
570121,SASSAFRAS,4555,,DEL,888888889001,96,Recycle,COMPLETED,08/03/2014 08:24:53,100PERCENT,,,,
570120,SASSAFRAS,4551,,DEL,888888889002,96,Recycle,COMPLETED,08/03/2014 08:24:53,100PERCENT,,,,
570119,SASSAFRAS,4543,,DEL,888888889003,96,Recycle,COMPLETED,08/03/2014 08:24:53,100PERCENT,,,,
569456,RYDER,3739,,DEL,888888889004,96,Recycle,COMPLETED,08/03/2014 08:24:53,100PERCENT,,,,
569455,RYDER,3735,,DEL,888888889005,96,Recycle,COMPLETED,08/03/2014 08:24:53,100PERCENT,,,,
569454,RYDER,3732,,DEL,888888889006,96,Recycle,COMPLETED,08/03/2014 08:24:53,100PERCENT,,,,
569453,RYDER,3731,,DEL,888888889007,96,Recycle,COMPLETED,08/03/2014 08:24:53,100PERCENT,,,,
569452,RYDER,3728,,DEL,888888889008,96,Recycle,COMPLETED,08/03/2014 08:24:53,100PERCENT,,,,
569451,RYDER,3727,,DEL,888888889009,96,Recycle,COMPLETED,08/03/2014 08:24:53,100PERCENT,,,,
569450,RYDER,3724,,DEL,888888889010,96,Recycle,COMPLETED,08/03/2014 08:24:53,100PERCENT,,,,
569449,RYDER,3723,,DEL,888888889011,96,Recycle,COMPLETED,08/03/2014 08:24:53,100PERCENT,,,,
569448,RYDER,3720,,DEL,888888889012,96,Recycle,COMPLETED,08/03/2014 08:24:53,100PERCENT,,,,
569447,RYDER,3712,,DEL,888888889013,96,Recycle,COMPLETED,08/03/2014 08:24:53,100PERCENT,,,,
569446,RYDER,3711,,DEL,888888889014,96,Recycle,COMPLETED,08/03/2014 08:24:53,100PERCENT,,,,
569445,RYDER,3708,,DEL,888888889015,96,Recycle,COMPLETED,08/03/2014 08:24:53,100PERCENT,,,,
569180,ROYAL PORTRUSH,3919,,DEL,888888889016,96,Recycle,COMPLETED,08/03/2014 08:24:53,100PERCENT,,,,
569179,ROYAL PORTRUSH,3916,,DEL,888888889017,96,Recycle,COMPLETED,08/03/2014 08:24:53,100PERCENT,,,,
569178,ROYAL PORTRUSH,3915,,DEL,888888889018,96,Recycle,COMPLETED,08/03/2014 08:24:53,100PERCENT,,,,
569177,ROYAL PORTRUSH,3912,,DEL,888888889019,96,Recycle,COMPLETED,08/03/2014 08:24:53,100PERCENT,,,,
569176,ROYAL PORTRUSH,3911,,DEL,888888889020,96,Recycle,COMPLETED,08/03/2014 08:24:53,100PERCENT,,,,
569175,ROYAL PORTRUSH,3908,,DEL,888888889021,96,Recycle,COMPLETED,08/03/2014 08:24:53,100PERCENT,,,,
569174,ROYAL PORTRUSH,3907,,DEL,888888889022,96,Recycle,COMPLETED,08/03/2014 08:24:53,100PERCENT,,,,
569173,ROYAL PORTRUSH,3903,,DEL,888888889023,96,Recycle,COMPLETED,08/03/2014 08:24:53,100PERCENT,,,,
569172,ROYAL PORTRUSH,3824,,DEL,888888889024,96,Recycle,COMPLETED,08/03/2014 08:24:53,100PERCENT,,,,
569171,ROYAL PORTRUSH,3823,,DEL,888888889025,96,Recycle,COMPLETED,08/03/2014 08:24:53,100PERCENT,,,,
569170,ROYAL PORTRUSH,3820,,DEL,888888889026,96,Recycle,COMPLETED,08/03/2014 08:24:53,100PERCENT,,,,
569169,ROYAL PORTRUSH,3819,,DEL,888888889027,96,Recycle,COMPLETED,08/03/2014 08:24:53,100PERCENT,,,,
569168,ROYAL PORTRUSH,3816,,DEL,888888889028,96,Recycle,COMPLETED,08/03/2014 08:24:53,100PERCENT,,,,
569167,ROYAL PORTRUSH,3815,,DEL,888888889029,96,Recycle,COMPLETED,08/03/2014 08:24:53,100PERCENT,,,,
569166,ROYAL PORTRUSH,3812,,DEL,888888889030,96,Recycle,COMPLETED,08/03/2014 08:24:53,100PERCENT,,,,
569165,ROYAL PORTRUSH,3807,,DEL,888888889031,96,Recycle,COMPLETED,08/03/2014 08:24:53,100PERCENT,,,,
569164,ROYAL PORTRUSH,3803,,DEL,888888889032,96,Recycle,COMPLETED,08/03/2014 08:24:53,100PERCENT,,,,
569163,ROYAL PORTHCAWL,11057,,DEL,888888889033,96,Recycle,COMPLETED,08/03/2014 08:24:53,100PERCENT,,,,
569162,ROYAL MEWS,4175,,DEL,888888889034,96,Recycle,COMPLETED,08/03/2014 08:24:53,100PERCENT,,,,
569161,ROYAL MEWS,4173,,DEL,888888889035,96,Recycle,COMPLETED,08/03/2014 08:24:53,100PERCENT,,,,
569160,ROYAL MEWS,4171,,DEL,888888889036,96,Recycle,COMPLETED,08/03/2014 08:24:53,100PERCENT,,,,
569159,ROYAL MEWS,4161,,DEL,888888889037,96,Recycle,COMPLETED,08/03/2014 08:24:53,100PERCENT,,,,
569158,ROYAL MEWS,4159,,DEL,888888889038,96,Recycle,COMPLETED,08/03/2014 08:24:53,100PERCENT,,,,
569157,ROYAL MEWS,4157,,DEL,888888889039,96,Recycle,COMPLETED,08/03/2014 08:24:53,100PERCENT,,,,
569156,ROYAL MEWS,4155,,DEL,888888889040,96,Recycle,COMPLETED,08/03/2014 08:24:53,100PERCENT,,,,
569155,ROYAL MEWS,4153,,DEL,888888889041,96,Recycle,COMPLETED,08/03/2014 08:24:53,100PERCENT,,,,
569154,ROYAL MEWS,4151,,DEL,888888889042,96,Recycle,COMPLETED,08/03/2014 08:24:53,100PERCENT,,,,
569153,ROYAL MEWS,4149,,DEL,888888889043,96,Recycle,COMPLETED,08/03/2014 08:24:53,100PERCENT,,,,
569152,ROYAL MEWS,4147,,DEL,888888889044,96,Recycle,COMPLETED,08/03/2014 08:24:53,100PERCENT,,,,
569151,ROYAL MEWS,4145,,DEL,888888889045,96,Recycle,COMPLETED,08/03/2014 08:24:53,100PERCENT,,,,
569150,ROYAL MEWS,4143,,DEL,888888889046,96,Recycle,COMPLETED,08/03/2014 08:24:53,100PERCENT,,,,
569149,ROYAL MEWS,4139,,DEL,888888889047,96,Recycle,COMPLETED,08/03/2014 08:24:53,100PERCENT,,,,
569148,ROYAL MEWS,4137,,DEL,888888889048,96,Recycle,COMPLETED,08/03/2014 08:24:53,100PERCENT,,,,
569147,ROYAL MEWS,4133,,DEL,888888889049,96,Recycle,COMPLETED,08/03/2014 08:24:53,100PERCENT,,,,
569146,ROYAL MEWS,4131,,DEL,888888889050,96,Recycle,COMPLETED,08/03/2014 08:24:53,100PERCENT,,,,
569145,ROYAL DORNACH,3812,,DEL,888888889051,96,Recycle,COMPLETED,08/03/2014 08:24:53,100PERCENT,,,,
569144,ROYAL DORNACH,3811,,DEL,888888889052,96,Recycle,COMPLETED,08/03/2014 08:24:53,100PERCENT,,,,
569143,ROYAL DORNACH,3808,,DEL,888888889053,96,Recycle,COMPLETED,08/03/2014 08:24:53,100PERCENT,,,,
569142,ROYAL DORNACH,3807,,DEL,888888889054,96,Recycle,COMPLETED,08/03/2014 08:24:53,100PERCENT,,,,
569141,ROYAL DORNACH,3804,,DEL,888888889055,96,Recycle,COMPLETED,08/03/2014 08:24:53,100PERCENT,,,,
569140,ROYAL DORNACH,3803,,DEL,888888889056,96,Recycle,COMPLETED,08/03/2014 08:24:53,100PERCENT,,,,
565706,PERTH,4716,,DEL,888888889057,96,Recycle,COMPLETED,08/03/2014 08:24:53,100PERCENT,,,,
565705,PERTH,4712,,DEL,888888889058,96,Recycle,COMPLETED,08/03/2014 08:24:53,100PERCENT,,,,
565704,PERTH,4711,,DEL,888888889059,96,Recycle,COMPLETED,08/03/2014 08:24:53,100PERCENT,,,,
565703,PERTH,4708,,DEL,888888889060,96,Recycle,COMPLETED,08/03/2014 08:24:53,100PERCENT,,,,
565702,PERTH,4707,,DEL,888888889061,96,Recycle,COMPLETED,08/03/2014 08:24:53,100PERCENT,,,,
565701,PERTH,4703,,DEL,888888889062,96,Recycle,COMPLETED,08/03/2014 08:24:53,100PERCENT,,,,
565139,PAGODA,4312,,DEL,888888889063,96,Recycle,COMPLETED,08/03/2014 08:24:53,100PERCENT,,,,
565138,PAGODA,4311,,DEL,888888889064,96,Recycle,COMPLETED,08/03/2014 08:24:53,100PERCENT,,,,
565137,PAGODA,4308,,DEL,888888889065,96,Recycle,COMPLETED,08/03/2014 08:24:53,100PERCENT,,,,
565136,PAGODA,4307,,DEL,888888889066,96,Recycle,COMPLETED,08/03/2014 08:24:53,100PERCENT,,,,
565135,PAGODA,4304,,DEL,888888889067,96,Recycle,COMPLETED,08/03/2014 08:24:53,100PERCENT,,,,
565134,PAGODA,4303,,DEL,888888889068,96,Recycle,COMPLETED,08/03/2014 08:24:53,100PERCENT,,,,
560830,LITTLESTONE,3972,,DEL,888888889069,96,Recycle,COMPLETED,08/03/2014 08:24:53,100PERCENT,,,,
560829,LITTLESTONE,3968,,DEL,888888889070,96,Recycle,COMPLETED,08/03/2014 08:24:53,100PERCENT,,,,
560828,LITTLESTONE,3967,,DEL,888888889071,96,Recycle,COMPLETED,08/03/2014 08:24:53,100PERCENT,,,,
560827,LITTLESTONE,3963,,DEL,888888889072,96,Recycle,COMPLETED,08/03/2014 08:24:53,100PERCENT,,,,
560826,LITTLESTONE,3959,,DEL,888888889073,96,Recycle,COMPLETED,08/03/2014 08:24:53,100PERCENT,,,,
560825,LITTLESTONE,3955,,DEL,888888889074,96,Recycle,COMPLETED,08/03/2014 08:24:53,100PERCENT,,,,
560824,LITTLESTONE,3951,,DEL,888888889075,96,Recycle,COMPLETED,08/03/2014 08:24:53,100PERCENT,,,,
560823,LITTLESTONE,3948,,DEL,888888889076,96,Recycle,COMPLETED,08/03/2014 08:24:53,100PERCENT,,,,
560822,LITTLESTONE,3947,,DEL,888888889077,96,Recycle,COMPLETED,08/03/2014 08:24:53,100PERCENT,,,,
560821,LITTLESTONE,3944,,DEL,888888889078,96,Recycle,COMPLETED,08/03/2014 08:24:53,100PERCENT,,,,
560820,LITTLESTONE,3943,,DEL,888888889079,96,Recycle,COMPLETED,08/03/2014 08:24:53,100PERCENT,,,,
560819,LITTLESTONE,3940,,DEL,888888889080,96,Recycle,COMPLETED,08/03/2014 08:24:53,100PERCENT,,,,
560818,LITTLESTONE,3939,,DEL,888888889081,96,Recycle,COMPLETED,08/03/2014 08:24:53,100PERCENT,,,,
560817,LITTLESTONE,3936,,DEL,888888889082,96,Recycle,COMPLETED,08/03/2014 08:24:53,100PERCENT,,,,
560816,LITTLESTONE,3935,,DEL,888888889083,96,Recycle,COMPLETED,08/03/2014 08:24:53,100PERCENT,,,,
560815,LITTLESTONE,3932,,DEL,888888889084,96,Recycle,COMPLETED,08/03/2014 08:24:53,100PERCENT,,,,
560814,LITTLESTONE,3931,,DEL,888888889085,96,Recycle,COMPLETED,08/03/2014 08:24:53,100PERCENT,,,,
560813,LITTLESTONE,3928,,DEL,888888889086,96,Recycle,COMPLETED,08/03/2014 08:24:53,100PERCENT,,,,
560812,LITTLESTONE,3927,,DEL,888888889087,96,Recycle,COMPLETED,08/03/2014 08:24:53,100PERCENT,,,,
560811,LITTLESTONE,3923,,DEL,888888889088,96,Recycle,COMPLETED,08/03/2014 08:24:53,100PERCENT,,,,
560810,LITTLESTONE,3919,,DEL,888888889089,96,Recycle,COMPLETED,08/03/2014 08:24:53,100PERCENT,,,,
560809,LITTLESTONE,3915,,DEL,888888889090,96,Recycle,COMPLETED,08/03/2014 08:24:53,100PERCENT,,,,
560808,LITTLESTONE,3911,,DEL,888888889091,96,Recycle,COMPLETED,08/03/2014 08:24:53,100PERCENT,,,,
560807,LITTLESTONE,3908,,DEL,888888889092,96,Recycle,COMPLETED,08/03/2014 08:24:53,100PERCENT,,,,
560806,LITTLESTONE,3907,,DEL,888888889093,96,Recycle,COMPLETED,08/03/2014 08:24:53,100PERCENT,,,,
560805,LITTLESTONE,3904,,DEL,888888889094,96,Recycle,COMPLETED,08/03/2014 08:24:53,100PERCENT,,,,
560804,LITTLESTONE,3903,,DEL,888888889095,96,Recycle,COMPLETED,08/03/2014 08:24:53,100PERCENT,,,,
560803,LITTLESTONE,3816,,DEL,888888889096,96,Recycle,COMPLETED,08/03/2014 08:24:53,100PERCENT,,,,
560802,LITTLESTONE,3815,,DEL,888888889097,96,Recycle,COMPLETED,08/03/2014 08:24:53,100PERCENT,,,,
560801,LITTLESTONE,3812,,DEL,888888889098,96,Recycle,COMPLETED,08/03/2014 08:24:53,100PERCENT,,,,
560800,LITTLESTONE,3811,,DEL,888888889099,96,Recycle,COMPLETED,08/03/2014 08:24:53,100PERCENT,,,,
560799,LITTLESTONE,3808,,DEL,888888889100,96,Recycle,COMPLETED,08/03/2014 08:24:53,100PERCENT,,,,
560798,LITTLESTONE,3807,,DEL,888888889101,96,Recycle,COMPLETED,08/03/2014 08:24:53,100PERCENT,,,,
560797,LITTLESTONE,3804,,DEL,888888889102,96,Recycle,COMPLETED,08/03/2014 08:24:53,100PERCENT,,,,
560796,LITTLESTONE,3803,,DEL,888888889103,96,Recycle,COMPLETED,08/03/2014 08:24:53,100PERCENT,,,,
560795,LITTLELEAF,4336,,DEL,888888889104,96,Recycle,COMPLETED,08/03/2014 08:24:53,100PERCENT,,,,
558497,JUNEBERRY,4060,,DEL,888888889105,96,Recycle,COMPLETED,08/03/2014 08:24:53,100PERCENT,,,,
558496,JUNEBERRY,4059,,DEL,888888889106,96,Recycle,COMPLETED,08/03/2014 08:24:53,100PERCENT,,,,
558495,JUNEBERRY,4056,,DEL,888888889107,96,Recycle,COMPLETED,08/03/2014 08:24:53,100PERCENT,,,,
558494,JUNEBERRY,4055,,DEL,888888889108,96,Recycle,COMPLETED,08/03/2014 08:24:53,100PERCENT,,,,
558493,JUNEBERRY,4052,,DEL,888888889109,96,Recycle,COMPLETED,08/03/2014 08:24:53,100PERCENT,,,,
558492,JUNEBERRY,4051,,DEL,888888889110,96,Recycle,COMPLETED,08/03/2014 08:24:53,100PERCENT,,,,
558491,JUNEBERRY,4048,,DEL,888888889111,96,Recycle,COMPLETED,08/03/2014 08:24:53,100PERCENT,,,,
558490,JUNEBERRY,4047,,DEL,888888889112,96,Recycle,COMPLETED,08/03/2014 08:24:53,100PERCENT,,,,
558489,JUNEBERRY,4044,,DEL,888888889113,96,Recycle,COMPLETED,08/03/2014 08:24:53,100PERCENT,,,,
558488,JUNEBERRY,4043,,DEL,888888889114,96,Recycle,COMPLETED,08/03/2014 08:24:53,100PERCENT,,,,
558487,JUNEBERRY,4040,,DEL,888888889115,96,Recycle,COMPLETED,08/03/2014 08:24:53,100PERCENT,,,,
558486,JUNEBERRY,4039,,DEL,888888889116,96,Recycle,COMPLETED,08/03/2014 08:24:53,100PERCENT,,,,
558485,JUNEBERRY,4036,,DEL,888888889117,96,Recycle,COMPLETED,08/03/2014 08:24:53,100PERCENT,,,,
558484,JUNEBERRY,4035,,DEL,888888889118,96,Recycle,COMPLETED,08/03/2014 08:24:53,100PERCENT,,,,
558483,JUNEBERRY,4032,,DEL,888888889119,96,Recycle,COMPLETED,08/03/2014 08:24:53,100PERCENT,,,,
558482,JUNEBERRY,4031,,DEL,888888889120,96,Recycle,COMPLETED,08/03/2014 08:24:53,100PERCENT,,,,
558481,JUNEBERRY,4028,,DEL,888888889121,96,Recycle,COMPLETED,08/03/2014 08:24:53,100PERCENT,,,,
558480,JUNEBERRY,4027,,DEL,888888889122,96,Recycle,COMPLETED,08/03/2014 08:24:53,100PERCENT,,,,
558479,JUNEBERRY,4024,,DEL,888888889123,96,Recycle,COMPLETED,08/03/2014 08:24:53,100PERCENT,,,,
558478,JUNEBERRY,4023,,DEL,888888889124,96,Recycle,COMPLETED,08/03/2014 08:24:53,100PERCENT,,,,
558477,JUNEBERRY,4020,,DEL,888888889125,96,Recycle,COMPLETED,08/03/2014 08:24:53,100PERCENT,,,,
558476,JUNEBERRY,4019,,DEL,888888889126,96,Recycle,COMPLETED,08/03/2014 08:24:53,100PERCENT,,,,
558475,JUNEBERRY,4016,,DEL,888888889127,96,Recycle,COMPLETED,08/03/2014 08:24:53,100PERCENT,,,,
558474,JUNEBERRY,4015,,DEL,888888889128,96,Recycle,COMPLETED,08/03/2014 08:24:53,100PERCENT,,,,
558473,JUNEBERRY,4012,,DEL,888888889129,96,Recycle,COMPLETED,08/03/2014 08:24:53,100PERCENT,,,,
558472,JUNEBERRY,4011,,DEL,888888889130,96,Recycle,COMPLETED,08/03/2014 08:24:53,100PERCENT,,,,
558471,JUNEBERRY,4007,,DEL,888888889131,96,Recycle,COMPLETED,08/03/2014 08:24:53,100PERCENT,,,,
558470,JUNEBERRY,4003,,DEL,888888889132,96,Recycle,COMPLETED,08/03/2014 08:24:53,100PERCENT,,,,
557063,HONEY LOCUST,4116,,DEL,888888889133,96,Recycle,COMPLETED,08/03/2014 08:24:53,100PERCENT,,,,
557062,HONEY LOCUST,4112,,DEL,888888889134,96,Recycle,COMPLETED,08/03/2014 08:24:53,100PERCENT,,,,
557061,HONEY LOCUST,4111,,DEL,888888889135,96,Recycle,COMPLETED,08/03/2014 08:24:53,100PERCENT,,,,
557060,HONEY LOCUST,4108,,DEL,888888889136,96,Recycle,COMPLETED,08/03/2014 08:24:53,100PERCENT,,,,
557059,HONEY LOCUST,4104,,DEL,888888889137,96,Recycle,COMPLETED,08/03/2014 08:24:53,100PERCENT,,,,
553075,FORMBY,3916,,DEL,888888889138,96,Recycle,COMPLETED,08/03/2014 08:24:53,100PERCENT,,,,
553074,FORMBY,3915,,DEL,888888889139,96,Recycle,COMPLETED,08/03/2014 08:24:53,100PERCENT,,,,
553073,FORMBY,3908,,DEL,888888889140,96,Recycle,COMPLETED,08/03/2014 08:24:53,100PERCENT,,,,
553072,FORMBY,3828,,DEL,888888889141,96,Recycle,COMPLETED,08/03/2014 08:24:53,100PERCENT,,,,
553071,FORMBY,3824,,DEL,888888889142,96,Recycle,COMPLETED,08/03/2014 08:24:53,100PERCENT,,,,
553070,FORMBY,3820,,DEL,888888889143,96,Recycle,COMPLETED,08/03/2014 08:24:53,100PERCENT,,,,
553069,FORMBY,3816,,DEL,888888889144,96,Recycle,COMPLETED,08/03/2014 08:24:53,100PERCENT,,,,
553068,FORMBY,3812,,DEL,888888889145,96,Recycle,COMPLETED,08/03/2014 08:24:53,100PERCENT,,,,
550105,DOGWOOD,5419,,DEL,888888889146,96,Recycle,COMPLETED,08/03/2014 08:24:53,100PERCENT,,,,
550104,DOGWOOD,5415,,DEL,888888889147,96,Recycle,COMPLETED,08/03/2014 08:24:53,100PERCENT,,,,
550103,DOGWOOD,5412,,DEL,888888889148,96,Recycle,COMPLETED,08/03/2014 08:24:53,100PERCENT,,,,
550102,DOGWOOD,5411,,DEL,888888889149,96,Recycle,COMPLETED,08/03/2014 08:24:53,100PERCENT,,,,
550101,DOGWOOD,5408,,DEL,888888889150,96,Recycle,COMPLETED,08/03/2014 08:24:53,100PERCENT,,,,
550100,DOGWOOD,5407,,DEL,888888889151,96,Recycle,COMPLETED,08/03/2014 08:24:53,100PERCENT,,,,
550099,DOGWOOD,5404,,DEL,888888889152,96,Recycle,COMPLETED,08/03/2014 08:24:53,100PERCENT,,,,
548549,CORKTREE,4624,,DEL,888888889153,96,Recycle,COMPLETED,08/03/2014 08:24:53,100PERCENT,,,,
548548,CORKTREE,4623,,DEL,888888889154,96,Recycle,COMPLETED,08/03/2014 08:24:53,100PERCENT,,,,
548547,CORKTREE,4615,,DEL,888888889155,96,Recycle,COMPLETED,08/03/2014 08:24:53,100PERCENT,,,,
548546,CORKTREE,4612,,DEL,888888889156,96,Recycle,COMPLETED,08/03/2014 08:24:53,100PERCENT,,,,
548545,CORKTREE,4611,,DEL,888888889157,96,Recycle,COMPLETED,08/03/2014 08:24:53,100PERCENT,,,,
548544,CORKTREE,4608,,DEL,888888889158,96,Recycle,COMPLETED,08/03/2014 08:24:53,100PERCENT,,,,
548543,CORKTREE,4604,,DEL,888888889159,96,Recycle,COMPLETED,08/03/2014 08:24:53,100PERCENT,,,,
548542,CORKTREE,4603,,DEL,888888889160,96,Recycle,COMPLETED,08/03/2014 08:24:53,100PERCENT,,,,
548541,CORKTREE,4551,,DEL,888888889161,96,Recycle,COMPLETED,08/03/2014 08:24:53,100PERCENT,,,,
548540,CORKTREE,4548,,DEL,888888889162,96,Recycle,COMPLETED,08/03/2014 08:24:53,100PERCENT,,,,
548539,CORKTREE,4547,,DEL,888888889163,96,Recycle,COMPLETED,08/03/2014 08:24:53,100PERCENT,,,,
548538,CORKTREE,4544,,DEL,888888889164,96,Recycle,COMPLETED,08/03/2014 08:24:53,100PERCENT,,,,
548537,CORKTREE,4543,,DEL,888888889165,96,Recycle,COMPLETED,08/03/2014 08:24:53,100PERCENT,,,,
548536,CORKTREE,4540,,DEL,888888889166,96,Recycle,COMPLETED,08/03/2014 08:24:53,100PERCENT,,,,
548535,CORKTREE,4539,,DEL,888888889167,96,Recycle,COMPLETED,08/03/2014 08:24:53,100PERCENT,,,,
548534,CORKTREE,4535,,DEL,888888889168,96,Recycle,COMPLETED,08/03/2014 08:24:53,100PERCENT,,,,
548533,CORKTREE,4532,,DEL,888888889169,96,Recycle,COMPLETED,08/03/2014 08:24:53,100PERCENT,,,,
548532,CORKTREE,4531,,DEL,888888889170,96,Recycle,COMPLETED,08/03/2014 08:24:53,100PERCENT,,,,
548531,CORKTREE,4528,,DEL,888888889171,96,Recycle,COMPLETED,08/03/2014 08:24:53,100PERCENT,,,,
548530,CORKTREE,4527,,DEL,888888889172,96,Recycle,COMPLETED,08/03/2014 08:24:53,100PERCENT,,,,
548529,CORKTREE,4524,,DEL,888888889173,96,Recycle,COMPLETED,08/03/2014 08:24:53,100PERCENT,,,,
548528,CORKTREE,4520,,DEL,888888889174,96,Recycle,COMPLETED,08/03/2014 08:24:53,100PERCENT,,,,
548527,CORKTREE,4519,,DEL,888888889175,96,Recycle,COMPLETED,08/03/2014 08:24:53,100PERCENT,,,,
548526,CORKTREE,4508,,DEL,888888889176,96,Recycle,COMPLETED,08/03/2014 08:24:53,100PERCENT,,,,
547241,CHRISTA,5323,,DEL,888888889177,96,Recycle,COMPLETED,08/03/2014 08:24:53,100PERCENT,,,,
547240,CHRISTA,5227,,DEL,888888889178,96,Recycle,COMPLETED,08/03/2014 08:24:53,100PERCENT,,,,
547239,CHRISTA,5223,,DEL,888888889179,96,Recycle,COMPLETED,08/03/2014 08:24:53,100PERCENT,,,,
547238,CHRISTA,5219,,DEL,888888889180,96,Recycle,COMPLETED,08/03/2014 08:24:53,100PERCENT,,,,
547237,CHRISTA,5211,,DEL,888888889181,96,Recycle,COMPLETED,08/03/2014 08:24:53,100PERCENT,,,,
547236,CHRISTA,5207,,DEL,888888889182,96,Recycle,COMPLETED,08/03/2014 08:24:53,100PERCENT,,,,
547235,CHRISTA,5203,,DEL,888888889183,96,Recycle,COMPLETED,08/03/2014 08:24:53,100PERCENT,,,,
547234,CHRISTA,5131,,DEL,888888889184,96,Recycle,COMPLETED,08/03/2014 08:24:53,100PERCENT,,,,
547233,CHRISTA,5127,,DEL,888888889185,96,Recycle,COMPLETED,08/03/2014 08:24:53,100PERCENT,,,,
547232,CHRISTA,5124,,DEL,888888889186,96,Recycle,COMPLETED,08/03/2014 08:24:53,100PERCENT,,,,
547231,CHRISTA,5123,,DEL,888888889187,96,Recycle,COMPLETED,08/03/2014 08:24:53,100PERCENT,,,,
547230,CHRISTA,5120,,DEL,888888889188,96,Recycle,COMPLETED,08/03/2014 08:24:53,100PERCENT,,,,
547229,CHRISTA,5119,,DEL,888888889189,96,Recycle,COMPLETED,08/03/2014 08:24:53,100PERCENT,,,,
547228,CHRISTA,5116,,DEL,888888889190,96,Recycle,COMPLETED,08/03/2014 08:24:53,100PERCENT,,,,
547227,CHRISTA,5115,,DEL,888888889191,96,Recycle,COMPLETED,08/03/2014 08:24:53,100PERCENT,,,,
547226,CHRISTA,5112,,DEL,888888889192,96,Recycle,COMPLETED,08/03/2014 08:24:53,100PERCENT,,,,
547225,CHRISTA,5111,,DEL,888888889193,96,Recycle,COMPLETED,08/03/2014 08:24:53,100PERCENT,,,,
547224,CHRISTA,5108,,DEL,888888889194,96,Recycle,COMPLETED,08/03/2014 08:24:53,100PERCENT,,,,
547223,CHRISTA,5103,,DEL,888888889195,96,Recycle,COMPLETED,08/03/2014 08:24:53,100PERCENT,,,,
547222,CHRISTA,5019,,DEL,888888889196,96,Recycle,COMPLETED,08/03/2014 08:24:53,100PERCENT,,,,
547087,CHINABERRY,4616,,DEL,888888889197,96,Recycle,COMPLETED,08/03/2014 08:24:53,100PERCENT,,,,
547086,CHINABERRY,4612,,DEL,888888889198,96,Recycle,COMPLETED,08/03/2014 08:24:53,100PERCENT,,,,
547085,CHINABERRY,4604,,DEL,888888889199,96,Recycle,COMPLETED,08/03/2014 08:24:53,100PERCENT,,,,
547084,CHINABERRY,4528,,DEL,888888889200,96,Recycle,COMPLETED,08/03/2014 08:24:53,100PERCENT,,,,
547083,CHINABERRY,4516,,DEL,888888889201,96,Recycle,COMPLETED,08/03/2014 08:24:53,100PERCENT,,,,
547082,CHINABERRY,4512,,DEL,888888889202,96,Recycle,COMPLETED,08/03/2014 08:24:53,100PERCENT,,,,
547081,CHINABERRY,4424,,DEL,888888889203,96,Recycle,COMPLETED,08/03/2014 08:24:53,100PERCENT,,,,
546527,CHAPARRAL,4244,,DEL,888888889204,96,Recycle,COMPLETED,08/03/2014 08:24:53,100PERCENT,,,,
546526,CHAPARRAL,4243,,DEL,888888889205,96,Recycle,COMPLETED,08/03/2014 08:24:53,100PERCENT,,,,
546525,CHAPARRAL,4240,,DEL,888888889206,96,Recycle,COMPLETED,08/03/2014 08:24:53,100PERCENT,,,,
546524,CHAPARRAL,4239,,DEL,888888889207,96,Recycle,COMPLETED,08/03/2014 08:24:53,100PERCENT,,,,
546523,CHAPARRAL,4232,,DEL,888888889208,96,Recycle,COMPLETED,08/03/2014 08:24:53,100PERCENT,,,,
546522,CHAPARRAL,4231,,DEL,888888889209,96,Recycle,COMPLETED,08/03/2014 08:24:53,100PERCENT,,,,
546521,CHAPARRAL,4228,,DEL,888888889210,96,Recycle,COMPLETED,08/03/2014 08:24:53,100PERCENT,,,,
546520,CHAPARRAL,4224,,DEL,888888889211,96,Recycle,COMPLETED,08/03/2014 08:24:53,100PERCENT,,,,
546519,CHAPARRAL,4223,,DEL,888888889212,96,Recycle,COMPLETED,08/03/2014 08:24:53,100PERCENT,,,,
546518,CHAPARRAL,4219,,DEL,888888889213,96,Recycle,COMPLETED,08/03/2014 08:24:53,100PERCENT,,,,
546517,CHAPARRAL,4216,,DEL,888888889214,96,Recycle,COMPLETED,08/03/2014 08:24:53,100PERCENT,,,,
546516,CHAPARRAL,4215,,DEL,888888889215,96,Recycle,COMPLETED,08/03/2014 08:24:53,100PERCENT,,,,
546515,CHAPARRAL,4211,,DEL,888888889216,96,Recycle,COMPLETED,08/03/2014 08:24:53,100PERCENT,,,,
546514,CHAPARRAL,4208,,DEL,888888889217,96,Recycle,COMPLETED,08/03/2014 08:24:53,100PERCENT,,,,
546513,CHAPARRAL,4207,,DEL,888888889218,96,Recycle,COMPLETED,08/03/2014 08:24:53,100PERCENT,,,,
546512,CHAPARRAL,4204,,DEL,888888889219,96,Recycle,COMPLETED,08/03/2014 08:24:53,100PERCENT,,,,
546511,CHAPARRAL,4203,,DEL,888888889220,96,Recycle,COMPLETED,08/03/2014 08:24:53,100PERCENT,,,,
546485,CHAMPION,4331,,DEL,888888889221,96,Recycle,COMPLETED,08/03/2014 08:24:53,100PERCENT,,,,
546484,CHAMPION,4328,,DEL,888888889222,96,Recycle,COMPLETED,08/03/2014 08:24:53,100PERCENT,,,,
546483,CHAMPION,4324,,DEL,888888889223,96,Recycle,COMPLETED,08/03/2014 08:24:53,100PERCENT,,,,
546482,CHAMPION,4323,,DEL,888888889224,96,Recycle,COMPLETED,08/03/2014 08:24:53,100PERCENT,,,,
546481,CHAMPION,4319,,DEL,888888889225,96,Recycle,COMPLETED,08/03/2014 08:24:53,100PERCENT,,,,
546480,CHAMPION,4316,,DEL,888888889226,96,Recycle,COMPLETED,08/03/2014 08:24:53,100PERCENT,,,,
546479,CHAMPION,4315,,DEL,888888889227,96,Recycle,COMPLETED,08/03/2014 08:24:53,100PERCENT,,,,
546478,CHAMPION,4311,,DEL,888888889228,96,Recycle,COMPLETED,08/03/2014 08:24:53,100PERCENT,,,,
546477,CHAMPION,4308,,DEL,888888889229,96,Recycle,COMPLETED,08/03/2014 08:24:53,100PERCENT,,,,
546476,CHAMPION,4307,,DEL,888888889230,96,Recycle,COMPLETED,08/03/2014 08:24:53,100PERCENT,,,,
